[{"OBJECT_NAME":"ONEWEB-0057","OBJECT_ID":"2020-008AF","EPOCH":"2025-11-06T02:34:22.609632","MEAN_MOTION":13.10377205,"ECCENTRICITY":0.00013514,"INCLINATION":87.8788,"RA_OF_ASC_NODE":80.7438,"ARG_OF_PERICENTER":98.8494,"MEAN_ANOMALY":261.2787,"EPHEMERIS_TYPE":0,"CLASSIFICATION_TYPE":"U","NORAD_CAT_ID":45160,"ELEMENT_SET_NO":999,"REV_AT_EPOCH":27913,"BSTAR":5.7920581e-5,"MEAN_MOTION_DOT":3.3e-7,"MEAN_MOTION_DDOT":0},{"OBJECT_NAME":"ONEWEB-0058","OBJECT_ID":"2020-008AG","EPOCH":"2025-11-06T07:45:17.308800","MEAN_MOTION":13.10374382,"ECCENTRICITY":0.00018216,"INCLINATION":87.8787,"RA_OF_ASC_NODE":80.7118,"ARG_OF_PERICENTER":101.3298,"MEAN_ANOMALY":258.8034,"EPHEMERIS_TYPE":0,"CLASSIFICATION_TYPE":"U","NORAD_CAT_ID":45161,"ELEMENT_SET_NO":999,"REV_AT_EPOCH":27923,"BSTAR":-0.0021204286,"MEAN_MOTION_DOT":-7.27e-6,"MEAN_MOTION_DDOT":0},{"OBJECT_NAME":"ONEWEB-0059","OBJECT_ID":"2020-008AH","EPOCH":"2025-11-06T07:40:20.209440","MEAN_MOTION":13.10369382,"ECCENTRICITY":0.00015652,"INCLINATION":87.8789,"RA_OF_ASC_NODE":80.7132,"ARG_OF_PERICENTER":101.4577,"MEAN_ANOMALY":258.6726,"EPHEMERIS_TYPE":0,"CLASSIFICATION_TYPE":"U","NORAD_CAT_ID":45162,"ELEMENT_SET_NO":999,"REV_AT_EPOCH":27913,"BSTAR":-0.0017740949,"MEAN_MOTION_DOT":-6.07e-6,"MEAN_MOTION_DDOT":0},{"OBJECT_NAME":"ONEWEB-0062","OBJECT_ID":"2020-008AJ","EPOCH":"2025-11-06T06:27:26.748576","MEAN_MOTION":13.10374043,"ECCENTRICITY":0.00019358,"INCLINATION":87.8784,"RA_OF_ASC_NODE":80.6995,"ARG_OF_PERICENTER":95.846,"MEAN_ANOMALY":264.2888,"EPHEMERIS_TYPE":0,"CLASSIFICATION_TYPE":"U","NORAD_CAT_ID":45163,"ELEMENT_SET_NO":999,"REV_AT_EPOCH":27899,"BSTAR":0.0013692587,"MEAN_MOTION_DOT":4.91e-6,"MEAN_MOTION_DDOT":0},{"OBJECT_NAME":"ONEWEB-0065","OBJECT_ID":"2020-008AK","EPOCH":"2025-11-06T02:18:49.264992","MEAN_MOTION":13.10374445,"ECCENTRICITY":0.00012264,"INCLINATION":87.8787,"RA_OF_ASC_NODE":80.7604,"ARG_OF_PERICENTER":88.8001,"MEAN_ANOMALY":271.3267,"EPHEMERIS_TYPE":0,"CLASSIFICATION_TYPE":"U","NORAD_CAT_ID":45164,"ELEMENT_SET_NO":999,"REV_AT_EPOCH":27866,"BSTAR":-0.0014762955,"MEAN_MOTION_DOT":-5.03e-6,"MEAN_MOTION_DDOT":0},{"OBJECT_NAME":"ONEWEB-0066","OBJECT_ID":"2020-020A","EPOCH":"2025-11-06T06:48:42.248448","MEAN_MOTION":13.11417922,"ECCENTRICITY":0.00015018,"INCLINATION":87.8862,"RA_OF_ASC_NODE":65.4496,"ARG_OF_PERICENTER":110.8834,"MEAN_ANOMALY":249.2455,"EPHEMERIS_TYPE":0,"CLASSIFICATION_TYPE":"U","NORAD_CAT_ID":45424,"ELEMENT_SET_NO":999,"REV_AT_EPOCH":27346,"BSTAR":-0.00095862695,"MEAN_MOTION_DOT":-3.27e-6,"MEAN_MOTION_DDOT":0},{"OBJECT_NAME":"ONEWEB-0067","OBJECT_ID":"2020-020B","EPOCH":"2025-11-06T07:42:37.616544","MEAN_MOTION":13.114151,"ECCENTRICITY":0.00014982,"INCLINATION":87.8859,"RA_OF_ASC_NODE":65.3451,"ARG_OF_PERICENTER":104.2548,"MEAN_ANOMALY":255.8746,"EPHEMERIS_TYPE":0,"CLASSIFICATION_TYPE":"U","NORAD_CAT_ID":45425,"ELEMENT_SET_NO":999,"REV_AT_EPOCH":27352,"BSTAR":0.0014206306,"MEAN_MOTION_DOT":5.16e-6,"MEAN_MOTION_DDOT":0},{"OBJECT_NAME":"ONEWEB-0080","OBJECT_ID":"2020-020C","EPOCH":"2025-11-06T06:05:59.626176","MEAN_MOTION":13.11415497,"ECCENTRICITY":0.00019169,"INCLINATION":87.8859,"RA_OF_ASC_NODE":65.4569,"ARG_OF_PERICENTER":107.2616,"MEAN_ANOMALY":252.8722,"EPHEMERIS_TYPE":0,"CLASSIFICATION_TYPE":"U","NORAD_CAT_ID":45426,"ELEMENT_SET_NO":999,"REV_AT_EPOCH":27348,"BSTAR":0.00038900577,"MEAN_MOTION_DOT":1.51e-6,"MEAN_MOTION_DDOT":0},{"OBJECT_NAME":"ONEWEB-0090","OBJECT_ID":"2020-020D","EPOCH":"2025-11-06T06:34:02.435520","MEAN_MOTION":13.11415412,"ECCENTRICITY":0.00016576,"INCLINATION":87.8858,"RA_OF_ASC_NODE":65.4534,"ARG_OF_PERICENTER":100.4684,"MEAN_ANOMALY":259.6631,"EPHEMERIS_TYPE":0,"CLASSIFICATION_TYPE":"U","NORAD_CAT_ID":45427,"ELEMENT_SET_NO":999,"REV_AT_EPOCH":27345,"BSTAR":-0.0012037627,"MEAN_MOTION_DOT":-4.14e-6,"MEAN_MOTION_DDOT":0},{"OBJECT_NAME":"ONEWEB-0061","OBJECT_ID":"2020-020E","EPOCH":"2025-11-06T07:20:15.758016","MEAN_MOTION":13.11418451,"ECCENTRICITY":0.00016072,"INCLINATION":87.8864,"RA_OF_ASC_NODE":65.4281,"ARG_OF_PERICENTER":103.095,"MEAN_ANOMALY":257.0357,"EPHEMERIS_TYPE":0,"CLASSIFICATION_TYPE":"U","NORAD_CAT_ID":45428,"ELEMENT_SET_NO":999,"REV_AT_EPOCH":27341,"BSTAR":0.0011836178,"MEAN_MOTION_DOT":4.32e-6,"MEAN_MOTION_DDOT":0},{"OBJECT_NAME":"ONEWEB-0081","OBJECT_ID":"2020-020F","EPOCH":"2025-11-06T06:53:35.372544","MEAN_MOTION":13.11418595,"ECCENTRICITY":0.00014965,"INCLINATION":87.8858,"RA_OF_ASC_NODE":65.4486,"ARG_OF_PERICENTER":108.8756,"MEAN_ANOMALY":251.2534,"EPHEMERIS_TYPE":0,"CLASSIFICATION_TYPE":"U","NORAD_CAT_ID":45429,"ELEMENT_SET_NO":999,"REV_AT_EPOCH":27352,"BSTAR":-0.0005700654,"MEAN_MOTION_DOT":-1.89e-6,"MEAN_MOTION_DDOT":0},{"OBJECT_NAME":"ONEWEB-0069","OBJECT_ID":"2020-020G","EPOCH":"2025-11-06T06:37:42.578400","MEAN_MOTION":13.1141548,"ECCENTRICITY":0.00015473,"INCLINATION":87.8862,"RA_OF_ASC_NODE":65.4477,"ARG_OF_PERICENTER":103.4112,"MEAN_ANOMALY":256.7189,"EPHEMERIS_TYPE":0,"CLASSIFICATION_TYPE":"U","NORAD_CAT_ID":45430,"ELEMENT_SET_NO":999,"REV_AT_EPOCH":27345,"BSTAR":-0.0013749157,"MEAN_MOTION_DOT":-4.75e-6,"MEAN_MOTION_DDOT":0},{"OBJECT_NAME":"ONEWEB-0031","OBJECT_ID":"2020-020H","EPOCH":"2025-11-06T07:47:18.581568","MEAN_MOTION":13.11416905,"ECCENTRICITY":0.00018016,"INCLINATION":87.8853,"RA_OF_ASC_NODE":65.4634,"ARG_OF_PERICENTER":98.9995,"MEAN_ANOMALY":261.1337,"EPHEMERIS_TYPE":0,"CLASSIFICATION_TYPE":"U","NORAD_CAT_ID":45431,"ELEMENT_SET_NO":999,"REV_AT_EPOCH":27344,"BSTAR":0.0012190723,"MEAN_MOTION_DOT":4.45e-6,"MEAN_MOTION_DDOT":0},{"OBJECT_NAME":"ONEWEB-0027","OBJECT_ID":"2020-020J","EPOCH":"2025-11-06T06:45:07.293024","MEAN_MOTION":13.17651491,"ECCENTRICITY":0.00018976,"INCLINATION":87.9137,"RA_OF_ASC_NODE":50.1633,"ARG_OF_PERICENTER":90.4781,"MEAN_ANOMALY":269.6568,"EPHEMERIS_TYPE":0,"CLASSIFICATION_TYPE":"U","NORAD_CAT_ID":45432,"ELEMENT_SET_NO":999,"REV_AT_EPOCH":27700,"BSTAR":0.00031343599,"MEAN_MOTION_DOT":1.35e-6,"MEAN_MOTION_DDOT":0},{"OBJECT_NAME":"ONEWEB-0064","OBJECT_ID":"2020-020K","EPOCH":"2025-11-06T05:55:00.293088","MEAN_MOTION":13.11417368,"ECCENTRICITY":0.0001729,"INCLINATION":87.8854,"RA_OF_ASC_NODE":65.4692,"ARG_OF_PERICENTER":97.2918,"MEAN_ANOMALY":262.8407,"EPHEMERIS_TYPE":0,"CLASSIFICATION_TYPE":"U","NORAD_CAT_ID":45433,"ELEMENT_SET_NO":999,"REV_AT_EPOCH":27346,"BSTAR":0.0012515208,"MEAN_MOTION_DOT":4.56e-6,"MEAN_MOTION_DDOT":0},{"OBJECT_NAME":"ONEWEB-0018","OBJECT_ID":"2020-020L","EPOCH":"2025-11-06T06:41:20.774688","MEAN_MOTION":13.11414993,"ECCENTRICITY":0.0001678,"INCLINATION":87.886,"RA_OF_ASC_NODE":65.4501,"ARG_OF_PERICENTER":106.5577,"MEAN_ANOMALY":253.5736,"EPHEMERIS_TYPE":0,"CLASSIFICATION_TYPE":"U","NORAD_CAT_ID":45434,"ELEMENT_SET_NO":999,"REV_AT_EPOCH":27341,"BSTAR":-0.0011713168,"MEAN_MOTION_DOT":-4.02e-6,"MEAN_MOTION_DDOT":0}]
