ONEWEB-0057             
1 45160U 20008AF  25310.10720613  .00000033  00000+0  57921-4 0  9990
2 45160  87.8788  80.7438 0001351  98.8494 261.2787 13.10377205279130
ONEWEB-0058             
1 45161U 20008AG  25310.32311700 -.00000727  00000+0 -21204-2 0  9993
2 45161  87.8787  80.7118 0001821 101.3298 258.8034 13.10374382279230
ONEWEB-0059             
1 45162U 20008AH  25310.31967835 -.00000607  00000+0 -17741-2 0  9997
2 45162  87.8789  80.7132 0001565 101.4577 258.6726 13.10369382279134
ONEWEB-0062             
1 45163U 20008AJ  25310.26905959  .00000491  00000+0  13693-2 0  9992
2 45163  87.8784  80.6995 0001935  95.8460 264.2888 13.10374043278999
ONEWEB-0065             
1 45164U 20008AK  25310.09640353 -.00000503  00000+0 -14763-2 0  9993
2 45164  87.8787  80.7604 0001226  88.8001 271.3267 13.10374445278667
ONEWEB-0066             
1 45424U 20020A   25310.28382232 -.00000327  00000+0 -95863-3 0  9991
2 45424  87.8862  65.4496 0001501 110.8834 249.2455 13.11417922273460
ONEWEB-0067             
1 45425U 20020B   25310.32126871  .00000516  00000+0  14206-2 0  9991
2 45425  87.8859  65.3451 0001498 104.2548 255.8746 13.11415100273520
ONEWEB-0080             
1 45426U 20020C   25310.25416234  .00000151  00000+0  38901-3 0  9993
2 45426  87.8859  65.4569 0001916 107.2616 252.8722 13.11415497273481
ONEWEB-0090             
1 45427U 20020D   25310.27363930 -.00000414  00000+0 -12038-2 0  9996
2 45427  87.8858  65.4534 0001657 100.4684 259.6631 13.11415412273453
ONEWEB-0061             
1 45428U 20020E   25310.30573794  .00000432  00000+0  11836-2 0  9995
2 45428  87.8864  65.4281 0001607 103.0950 257.0357 13.11418451273419
ONEWEB-0081             
1 45429U 20020F   25310.28721496 -.00000189  00000+0 -57007-3 0  9999
2 45429  87.8858  65.4486 0001496 108.8756 251.2534 13.11418595273527
ONEWEB-0069             
1 45430U 20020G   25310.27618725 -.00000475  00000+0 -13749-2 0  9992
2 45430  87.8862  65.4477 0001547 103.4112 256.7189 13.11415480273456
ONEWEB-0031             
1 45431U 20020H   25310.32452062  .00000445  00000+0  12191-2 0  9994
2 45431  87.8853  65.4634 0001801  98.9995 261.1337 13.11416905273449
ONEWEB-0027             
1 45432U 20020J   25310.28133441  .00000135  00000+0  31344-3 0  9995
2 45432  87.9137  50.1633 0001897  90.4781 269.6568 13.17651491277003
ONEWEB-0064             
1 45433U 20020K   25310.24653117  .00000456  00000+0  12515-2 0  9993
2 45433  87.8854  65.4692 0001729  97.2918 262.8407 13.11417368273464
ONEWEB-0018             
1 45434U 20020L   25310.27871267 -.00000402  00000+0 -11713-2 0  9997
2 45434  87.8860  65.4501 0001678 106.5577 253.5736 13.11414993273417
